#cP2019  4 20  0  0  0.00000000      96 ORBIT IGS14 HLM  IGS
## 2049 518400.00000000   900.00000000 58593 0.0000000000000
+   32   G01G02G03G04G05G06G07G08G09G10G11G12G13G14G15G16G17
+        G18G19G20G21G22G23G24G25G26G27G28G29G30G31G32  0  0
+          0  0  0  0  0  0  0  0  0  0  0  0  0  0  0  0  0
+          0  0  0  0  0  0  0  0  0  0  0  0  0  0  0  0  0
+          0  0  0  0  0  0  0  0  0  0  0  0  0  0  0  0  0
++         2  2  2  4  2  2  2  2  2  2  2  2  2  2  2  2  2
++         2  3  2  2  2  2  2  2  2  2  2  2  2  2  2  0  0
++         0  0  0  0  0  0  0  0  0  0  0  0  0  0  0  0  0
++         0  0  0  0  0  0  0  0  0  0  0  0  0  0  0  0  0
++         0  0  0  0  0  0  0  0  0  0  0  0  0  0  0  0  0
%c G  cc GPS ccc cccc cccc cccc cccc ccccc ccccc ccccc ccccc
%c cc cc ccc ccc cccc cccc cccc cccc ccccc ccccc ccccc ccccc
%f  1.2500000  1.025000000  0.00000000000  0.000000000000000
%f  0.0000000  0.000000000  0.00000000000  0.000000000000000
%i    0    0    0    0      0      0      0      0         0
%i    0    0    0    0      0      0      0      0         0
/* FINAL ORBIT COMBINATION FROM WEIGHTED AVERAGE OF:        
/* cod emr esa gfz grg jpl mit ngs sio                      
/* REFERENCED TO IGS TIME (IGST) AND TO WEIGHTED MEAN POLE: 
/* PCV:IGS14_2045 OL/AL:FES2004  NONE     Y  ORB:CMB CLK:CMB
*  2019  4 20 17 15  0.00000000
PG01   7721.421752 -18851.356410 -17041.148390   -206.036818  5  6     88       
PG02 -21767.417670  14872.461680  -1777.677420   -193.812370  7  8  6  70       
PG03  -1095.740465 -16672.953035 -20703.709107    188.305723  6  8  5  94       
PG04 -11103.951017 -18865.443395  15055.839786    151.511402 10 10  8  78       
PG05 -18044.416073   6160.340754  18454.852013      1.101770  3  6     83       
PG06 -22571.548575   4152.534578 -13350.236633    225.927885  3  6  5  78       
PG07  -6770.749938 -13942.227274  21796.200576     -8.628480  6  6  2  90       
PG08   6451.857958 -22774.810562  11873.310608   -140.622327  6  9  6  93       
PG09  -8684.121927 -23104.978457   9752.897076    425.493032  6  5  6 102       
PG10  24237.850376  11045.032201  -1249.165234     67.852092  5  6  4  87       
PG11   6918.442952 -24461.942266  -8637.602499   -622.727544  6  6  3  99       
PG12   -422.658882  16201.010180 -21292.793201    249.556855  4 10  7  81       
PG13 -12577.278377  16126.760418  16811.394526    -67.001625  5  7  2  99       
PG14  15059.950532    251.782214 -21560.794211    -83.722880  4  5  4  64       
PG15  -3857.871008  23982.660085  10007.772204   -317.353865  5 11  6  78       
PG16  17362.211237  -4623.155539  19522.744369    -34.092154  6  6     86       
PG17 -13417.620652 -10339.078203 -20078.459995     42.079858  3  4  5  84       
PG18  15198.127448 -19665.368744  -9656.649024     45.995842  4  7  3 143       
PG19 -14854.392295   -998.191019 -22293.412358   -328.407548  4  6  6  77       
PG20  20862.994299  14160.593933   8474.892375    524.123530     5  4  95       
PG21  11823.769830  10848.655925  21961.237099   -208.516248  5  5  5  77       
PG22   6994.476488 -14230.206008 -21072.179840   -687.151415  5  8  6  94       
PG23  -1284.612811 -26264.135466  -1115.866782   -189.440674  7  9  5 100       
PG24 -10274.457041  20141.046850 -13825.162637    -65.025552  3  7  2  71       
PG25  12553.006650  18044.859141 -15302.211349   -747.780693  7  7  4  83       
PG26  23692.899882   1614.061050  12053.834334    181.014889  4  4  2  78       
PG27  12120.482316 -13406.195715  19251.671667   -112.922248  6  6  6  93       
PG28 -22552.283262 -13915.136062     -0.656803    767.574804  5  6  7  91       
PG29   3640.517273  25692.203700   5637.264394    220.816715  6  8     77       
PG30 -17245.632574  -6070.146665  19344.909611    -90.035988  5  4  4  71       
PG31  23467.518422  -4727.666710 -11969.099750     43.712513  5  7  6  58       
PG32  15114.788473   6668.533216 -20764.361537   -123.650535  4  5  2  81       
*  2019  4 20 17 30  0.00000000
PG01   9299.692880 -19763.792886 -15056.735452   -206.044401  5  6    105       
PG02 -21612.150145  14375.019174  -4598.945647   -193.820470  7  8  6  94       
PG03   1110.524231 -15724.980359 -21425.767244    188.305877  6  8  5  95       
PG04 -11008.022413 -20470.492928  12868.889738    151.515751 10 11  9  70       
PG05 -19855.520589   5214.268527  16844.429709      1.101704  3  6  1  85       
PG06 -21318.413246   3058.967163 -15518.518919    225.919212  3  5  5  86       
PG07  -4743.303512 -15271.962794  21391.008138     -8.635137  6  7  3 103       
PG08   6805.194578 -21312.774395  14190.917166   -140.623688  6  9  6  90       
PG09  -8532.717870 -24099.931089   7138.607207    425.487174  6  6  6 108       
PG10  24128.002262  11254.447524   1598.085600     67.843200  5  6  4  83       
PG11   7604.054270 -24974.277581  -6073.543521   -622.720934  5  6  3  96       
PG12  -2565.942202  15076.849787 -21948.877528    249.553873  4 10  7  65       
PG13 -12660.114682  14083.728911  18493.474999    -67.000199  5  6  2  87       
PG14  15088.008973   2775.874245 -21382.170614    -83.721419  4  6  4  50       
PG15  -4427.062742  22730.580134  12389.564692   -317.352093  5 10  6  87       
PG16  19204.410226  -3482.740728  18028.522309    -34.094692  5  6  2  95       
PG17 -13419.174846 -12634.283468 -18754.777463     42.085442  3  4  5  96       
PG18  16063.412788 -20020.351174  -7025.449710     45.998942  3  7  2 136       
PG19 -14821.754638  -3465.247449 -22056.206048   -328.403580  4  6  7  84       
PG20  19700.509506  14099.422255  10951.262180    524.123516     7  4  86       
PG21   9996.003782  12335.235940  22101.812635   -208.509182  5  6  4  80       
PG22   9279.778684 -13328.428465 -20774.174342   -687.157679  4  8  6 102       
PG23   -913.607201 -25974.818418  -3941.270579   -189.439389  7  9  5  87       
PG24 -11578.066382  20822.419396 -11545.296564    -65.027124  3  7  1  81       
PG25  10849.751670  17404.381195 -17228.104901   -747.784475  7  8  4  91       
PG26  24739.253617   2315.625419   9607.617171    181.023792  4  5  3  75       
PG27  12442.186508 -11129.086942  20479.198960   -112.930108  5  6  6  96       
PG28 -22366.864459 -14038.989109   2897.084806    767.574890  5  6  7  84       
PG29   3474.115596  26181.379062   2785.618873    220.808321  5  8     59       
PG30 -15396.472765  -7394.867999  20399.113425    -90.042189  5  4  4  89       
PG31  22331.759084  -3756.447469 -14229.744691     43.710507  5  7  5  84       
PG32  15261.235382   8994.382950 -19768.839143   -123.634701  5  5  3  84       
*  2019  4 20 17 45  0.00000000
PG01  10641.469285 -20611.440321 -12812.318476   -206.051813  4  6    116       
PG02 -21249.111341  13652.018489  -7339.195009   -193.829272  6  8  6 102       
PG03   3420.892752 -14871.822894 -21780.814411    188.306050  5  8  6  94       
PG04 -10964.131339 -21820.358233  10460.647242    151.520156  9 12  9  63       
PG05 -21523.515051   4429.381676  14943.953645      1.101780  2  7  2 107       
PG06 -19946.747037   1753.261770 -17419.290875    225.910577  3  5  5  98       
PG07  -2835.025339 -16667.277800  20623.804391     -8.641633  6  7  3 110       
PG08   7276.588537 -19626.638381  16262.481534   -140.625161  6  8  7 103       
PG09  -8382.264416 -24802.342479   4401.223257    425.481323  7  6  5 112       
PG10  23731.644752  11354.022201   4418.177978     67.834301  5  6  4  85       
PG11   8142.667677 -25255.737165  -3407.800222   -622.714044  5  6  3 108       
PG12  -4818.217683  14052.237010 -22235.323153    249.550975  4 10  7  87       
PG13 -12856.523682  11874.502252  19854.046531    -66.998821  5  6  1 100       
PG14  15242.321116   5250.782869 -20825.338204    -83.719807  4  6  5  83       
PG15  -5115.750164  21253.907368  14550.842507   -317.349984  5 10  5  87       
PG16  20936.162788  -2532.237997  16224.383835    -34.097109  5  6  3  97       
PG17 -13530.254283 -14752.164523 -17098.526580     42.090827  3  5  5  77       
PG18  16686.363776 -20216.303715  -4274.081330     46.001733  3  7  3 140       
PG19 -14925.420137  -5884.408198 -21449.504463   -328.399142  4  6  8  91       
PG20  18275.516738  14026.719135  13239.697685    524.124413  2  7  5  92       
PG21   8252.440612  13912.009328  21888.751655   -208.502510  4  7  4  78       
PG22  11552.139323 -12548.899747 -20110.902629   -687.163288  4  7  6 102       
PG23   -472.795373 -25388.975245  -6696.686999   -189.437776  7  9  5 111       
PG24 -12648.131289  21387.112283  -9064.831257    -65.027934  3  6  2 103       
PG25   8928.064498  16784.626388 -18864.909878   -747.788344  7  8  4  91       
PG26  25551.798713   2865.436284   6997.519465    181.032641  4  5  3  72       
PG27  12905.253311  -8756.645249  21348.756931   -112.938062  5  5  6 106       
PG28 -21899.634410 -14024.396846   5745.057868    767.575107  5  6  7  95       
PG29   3306.251389  26353.840433   -113.991884    220.800246  5  8  2  49       
PG30 -13533.581489  -8868.612711  21104.091648    -90.048399  5  5  4 101       
PG31  21056.380648  -2579.543909 -16250.517916     43.708437  5  6  5  81       
PG32  15506.317280  11177.972397 -18432.539812   -123.618901  5  5  4  84       
EOF
